[{"OBJECT_NAME":"STARLINK-2507","OBJECT_ID":"2021-036AS","EPOCH":"2026-03-09T11:20:03.739200","MEAN_MOTION":15.06417231,"ECCENTRICITY":0.00013989,"INCLINATION":53.0537,"RA_OF_ASC_NODE":92.5941,"ARG_OF_PERICENTER":88.3681,"MEAN_ANOMALY":271.7468,"EPHEMERIS_TYPE":0,"CLASSIFICATION_TYPE":"U","NORAD_CAT_ID":48316,"ELEMENT_SET_NO":999,"REV_AT_EPOCH":26813,"BSTAR":0.00016715312,"MEAN_MOTION_DOT":2.21e-5,"MEAN_MOTION_DDOT":0},{"OBJECT_NAME":"FENGYUN 1C DEB","OBJECT_ID":"1999-025CSF","EPOCH":"2026-03-06T14:46:48.189792","MEAN_MOTION":14.83626867,"ECCENTRICITY":0.01812709,"INCLINATION":98.4497,"RA_OF_ASC_NODE":202.5264,"ARG_OF_PERICENTER":124.6228,"MEAN_ANOMALY":237.2229,"EPHEMERIS_TYPE":0,"CLASSIFICATION_TYPE":"U","NORAD_CAT_ID":32137,"ELEMENT_SET_NO":999,"REV_AT_EPOCH":67973,"BSTAR":0.0017939615,"MEAN_MOTION_DOT":0.00019795,"MEAN_MOTION_DDOT":0}]
